API VERSION: 1.2
API SOURCE: NASA/JPL Horizons API



*******************************************************************************
Ephemeris / API_USER Wed Apr 15 10:19:42 2026 Pasadena, USA      / Horizons
*******************************************************************************
Target body name: Uranus (799)                    {source: ura184_merged}
Center body name: Earth (399)                     {source: DE441}
Center-site name: BODY CENTER
*******************************************************************************
Start time      : A.D. 2029-Jun-13 02:13:00.0000 TDB
Stop  time      : A.D. 2029-Jun-15 02:13:00.0000 TDB
Step-size       : 60 minutes
*******************************************************************************
Center geodetic : 0.0, 0.0, 0.0                   {E-lon(deg),Lat(deg),Alt(km)}
Center cylindric: 0.0, 0.0, 0.0                   {E-lon(deg),Dxy(km),Dz(km)}
Center radii    : 6378.137, 6378.137, 6356.752 km {Equator_a, b, pole_c}
Output units    : AU-D
Calendar mode   : Mixed Julian/Gregorian
Output type     : GEOMETRIC cartesian states
Output format   : 3 (position, velocity, LT, range, range-rate)
EOP file        : eop.260414.p260711
EOP coverage    : DATA-BASED 1962-JAN-20 TO 2026-APR-14. PREDICTS-> 2026-JUL-10
Reference frame : Ecliptic of J2000.0
*******************************************************************************
            JDTDB,            Calendar Date (TDB),                      X,                      Y,                      Z,                     VX,                     VY,                     VZ,                     LT,                     RG,                     RR,
**************************************************************************************************************************************************************************************************************************************************************************
$$SOE
2462300.592361111, A.D. 2029-Jun-13 02:13:00.0000,  5.443803122410461E+00,  1.951946520422423E+01, -4.973541335238833E-05, -2.057076258447663E-02,  3.363344782332221E-03,  5.180202951401234E-05,  1.170372151582719E-01,  2.026436562779502E+01, -2.286402326458224E-03,
2462300.634027778, A.D. 2029-Jun-13 03:13:00.0000,  5.442945972266156E+00,  1.951960509497415E+01, -4.757692906833402E-05, -2.057244282917762E-02,  3.351411041522623E-03,  5.180534106382815E-05,  1.170366636120561E-01,  2.026427013052808E+01, -2.297466277351498E-03,
2462300.675694444, A.D. 2029-Jun-13 04:13:00.0000,  5.442088752301236E+00,  1.951974448846332E+01, -4.541829134475926E-05, -2.057411396315309E-02,  3.339476265491275E-03,  5.180939070550957E-05,  1.170361094034895E-01,  2.026417417228939E+01, -2.308528969161084E-03,
2462300.717361111, A.D. 2029-Jun-13 05:13:00.0000,  5.441231462896634E+00,  1.951988338464849E+01, -4.325946997570385E-05, -2.057577592386749E-02,  3.327540449469847E-03,  5.181415070188192E-05,  1.170355525328763E-01,  2.026407775313162E+01, -2.319590391094666E-03,
2462300.759027778, A.D. 2029-Jun-13 06:13:00.0000,  5.440374104435801E+00,  1.952002178348626E+01, -4.110043604851928E-05, -2.057742865296335E-02,  3.315603588961134E-03,  5.181958755106547E-05,  1.170349930005234E-01,  2.026398087310791E+01, -2.330650533233291E-03,
2462300.800694444, A.D. 2029-Jun-13 07:13:00.0000,  5.439516677304517E+00,  1.952015968493301E+01, -3.894116214786614E-05, -2.057907209691739E-02,  3.303665679917561E-03,  5.182566254810930E-05,  1.170344308067398E-01,  2.026388353227176E+01, -2.341709386534474E-03,
2462300.842361111, A.D. 2029-Jun-13 08:13:00.0000,  5.438659181890689E+00,  1.952029708894498E+01, -3.678162257325829E-05, -2.058070620760163E-02,  3.291726718903527E-03,  5.183233240519507E-05,  1.170338659518367E-01,  2.026378573067705E+01, -2.352766942825184E-03,
2462300.884027778, A.D. 2029-Jun-13 09:13:00.0000,  5.437801618584102E+00,  1.952043399547827E+01, -3.462179350560753E-05, -2.058233094273121E-02,  3.279786703238250E-03,  5.183954992354121E-05,  1.170332984361271E-01,  2.026368746837797E+01, -2.363823194783031E-03,
2462300.925694444, A.D. 2029-Jun-13 10:13:00.0000,  5.436943987776182E+00,  1.952057040448891E+01, -3.246165317058098E-05, -2.058394626618299E-02,  3.267845631116113E-03,  5.184726470841530E-05,  1.170327282599257E-01,  2.026358874542902E+01, -2.374878135904308E-03,
2462300.967361111, A.D. 2029-Jun-13 11:13:00.0000,  5.436086289859721E+00,  1.952070631593285E+01, -3.030118193900599E-05, -2.058555214817230E-02,  3.255903501701995E-03,  5.185542391654169E-05,  1.170321554235486E-01,  2.026348956188493E+01, -2.385931760458000E-03,
2462301.009027778, A.D. 2029-Jun-13 12:13:00.0000,  5.435228525228626E+00,  1.952084172976603E+01, -2.814036242886890E-05, -2.058714856528019E-02,  3.243960315199676E-03,  5.186397302274248E-05,  1.170315799273134E-01,  2.026338991780067E+01, -2.396984063425576E-03,
2462301.050694444, A.D. 2029-Jun-13 13:13:00.0000,  5.434370694277646E+00,  1.952097664594445E+01, -2.597917954356453E-05, -2.058873550032924E-02,  3.232016072892258E-03,  5.187285659004376E-05,  1.170310017715385E-01,  2.026328981323140E+01, -2.408035040427087E-03,
2462301.092361111, A.D. 2029-Jun-13 14:13:00.0000,  5.433512797402119E+00,  1.952111106442415E+01, -2.381762050775510E-05, -2.059031294211257E-02,  3.220070777154432E-03,  5.188201902487287E-05,  1.170304209565434E-01,  2.026318924823244E+01, -2.419084687635092E-03,
2462301.134027778, A.D. 2029-Jun-13 15:13:00.0000,  5.432654834997734E+00,  1.952124498516130E+01, -2.165567484983918E-05, -2.059188088498828E-02,  3.208124431437486E-03,  5.189140529664912E-05,  1.170298374826488E-01,  2.026308822285927E+01, -2.430133001678829E-03,
2462301.175694444, A.D. 2029-Jun-13 16:13:00.0000,  5.431796807460310E+00,  1.952137840811224E+01, -1.949333437246774E-05, -2.059343932835893E-02,  3.196177040229101E-03,  5.190096159922256E-05,  1.170292513501757E-01,  2.026298673716752E+01, -2.441179979541977E-03,
2462301.217361111, A.D. 2029-Jun-13 17:13:00.0000,  5.430938715185591E+00,  1.952151133323354E+01, -1.733059307923255E-05, -2.059498827606305E-02,  3.184228608991123E-03,  5.191063593064288E-05,  1.170286625594461E-01,  2.026288479121291E+01, -2.452225618458213E-03,
2462301.259027778, A.D. 2029-Jun-13 18:13:00.0000,  5.430080558569085E+00,  1.952164376048197E+01, -1.516744709737028E-05, -2.059652773571263E-02,  3.172279144079722E-03,  5.192037856780749E-05,  1.170280711107823E-01,  2.026278238505128E+01, -2.463269915809461E-03,
2462301.300694444, A.D. 2029-Jun-13 19:13:00.0000,  5.429222338005913E+00,  1.952177568981462E+01, -1.300389457337321E-05, -2.059805771801592E-02,  3.160328652653356E-03,  5.193014241410412E-05,  1.170274770045077E-01,  2.026267951873859E+01, -2.474312869032117E-03,
2462301.342361111, A.D. 2029-Jun-13 20:13:00.0000,  5.428364053890698E+00,  1.952190712118888E+01, -1.083993555027206E-05, -2.059957823612882E-02,  3.148377142575023E-03,  5.193988320137048E-05,  1.170268802409460E-01,  2.026257619233090E+01, -2.485354475536660E-03,
2462301.384027778, A.D. 2029-Jun-13 21:13:00.0000,  5.427505706617475E+00,  1.952203805456247E+01, -8.675571865637224E-06, -2.060108930507946E-02,  3.136424622315927E-03,  5.194955953269608E-05,  1.170262808204215E-01,  2.026247240588438E+01, -2.496394732645713E-03,
2462301.425694444, A.D. 2029-Jun-13 22:13:00.0000,  5.426647296579619E+00,  1.952216848989350E+01, -6.510807022486739E-06, -2.060259094130973E-02,  3.124471100868187E-03,  5.195913275987926E-05,  1.170256787432594E-01,  2.026236815945529E+01, -2.507433637554838E-03,
2462301.467361111, A.D. 2029-Jun-13 23:13:00.0000,  5.425788824169799E+00,  1.952229842714043E+01, -4.345646071350221E-06, -2.060408316237236E-02,  3.112516587674332E-03,  5.196856669886275E-05,  1.170250740097853E-01,  2.026226345310006E+01, -2.518471187318982E-03,
2462301.509027778, A.D. 2029-Jun-14 00:13:00.0000,  5.424930289779930E+00,  1.952242786626217E+01, -2.180095540941647E-06, -2.060556598681459E-02,  3.100561092580935E-03,  5.197782719811504E-05,  1.170244666203258E-01,  2.026215828687522E+01, -2.529507378865709E-03,
2462301.550694444, A.D. 2029-Jun-14 01:13:00.0000,  5.424071693801134E+00,  1.952255680721799E+01, -1.416333616064380E-08, -2.060703943426690E-02,  3.088604625822959E-03,  5.198688158847673E-05,  1.170238565752081E-01,  2.026205266083740E+01, -2.540542209033757E-03,
2462301.592361111, A.D. 2029-Jun-14 02:13:00.0000,  5.423213036623687E+00,  1.952268524996764E+01,  2.152141287407186E-06, -2.060850352574008E-02,  3.076647198044027E-03,  5.199569805803676E-05,  1.170232438747603E-01,  2.026194657504342E+01, -2.551575674632711E-03,
2462301.634027778, A.D. 2029-Jun-14 03:13:00.0000,  5.422354318636950E+00,  1.952281319447130E+01,  4.318807759349187E-06, -2.060995828411399E-02,  3.064688820355823E-03,  5.200424501143585E-05,  1.170226285193110E-01,  2.026184002955018E+01, -2.562607772516202E-03,
2462301.675694444, A.D. 2029-Jun-14 04:13:00.0000,  5.421495540229285E+00,  1.952294064068964E+01,  6.485824182472672E-06, -2.061140373477988E-02,  3.052729504437451E-03,  5.201249048856308E-05,  1.170220105091897E-01,  2.026173302441475E+01, -2.573638499657533E-03,
2462301.717361111, A.D. 2029-Jun-14 05:13:00.0000,  5.420636701787929E+00,  1.952306758858381E+01,  8.653177324836281E-06, -2.061283990637380E-02,  3.040769262672431E-03,  5.202040173161612E-05,  1.170213898447267E-01,  2.026162555969429E+01, -2.584667853213207E-03,
2462301.759027778, A.D. 2029-Jun-14 06:13:00.0000,  5.419777803698845E+00,  1.952319403811551E+01,  1.082085255440705E-05, -2.061426683151461E-02,  3.028808108317599E-03,  5.202794500002113E-05,  1.170207665262528E-01,  2.026151763544609E+01, -2.595695830556747E-03,
2462301.800694444, A.D. 2029-Jun-14 07:13:00.0000,  5.418918846346545E+00,  1.952331998924702E+01,  1.298883381913881E-05, -2.061568454743811E-02,  3.016846055694315E-03,  5.203508573750916E-05,  1.170201405540996E-01,  2.026140925172755E+01, -2.606722429262980E-03,
